curl -u smartadmin@smart-user:02040250204039 -v -X POST -H "Content-type:application/json" http://localhost:9090/orgs -d '{"name":"Smart IT Engineering Limited", "uniqueShortName":"SITEL", "address":{"streetAddress":"Haji Chinu Mia Road","city":"Dhaka","state":"Dhaka","country":"Bangladesh","zip":"1207"}}'
curl -u smartadmin@smart-user:02040250204039 -v -X POST -H "Content-type:application/json" http://localhost:9090/orgs -d '{"name":"Agoora Ltd", "uniqueShortName":"AGOORA", "address":{"streetAddress":"Gulshan2","city":"Dhaka","state":"Dhaka","country":"Bangladesh","zip":"1210"}}'
curl -u smartadmin@smart-user:02040250204039 -v -X POST -H "Content-type:application/json" http://localhost:9090/orgs -d '{"name":"Nondon Ltd", "uniqueShortName":"NONDON", "address":{"streetAddress":"Dhanmondi","city":"Dhaka","state":"Dhaka","country":"Bangladesh","zip":"1207"}}'
curl -u smartadmin@smart-user:02040250204039 -v -X POST -H "Content-type:application/json" http://localhost:9090/orgs -d '{"name":"Sopno Ltd", "uniqueShortName":"SOPNO", "address":{"streetAddress":"Gulsan","city":"Dhaka","state":"Dhaka","country":"Bangladesh","zip":"1207"}}'
curl -u smartadmin@smart-user:02040250204039 -v -X POST -H "Content-type:application/json" http://localhost:9090/orgs -d '{"name":"Wallfood Ltd", "uniqueShortName":"WALLFOOD", "address":{"streetAddress":"GEC","city":"Chittagong","state":"Chittagong","country":"Bangladesh","zip":"1207"}}'
curl -u smartadmin@smart-user:02040250204039 -v -X POST -H "Content-type:application/json" http://localhost:9090/orgs -d '{"name":"Khadok Food Centre", "uniqueShortName":"KFC", "address":{"streetAddress":"Dhanmondi","city":"Dhaka","state":"Dhaka","country":"Bangladesh","zip":"1207"}}'
curl -u smartadmin@smart-user:02040250204039 -v -X POST -H "Content-type:application/json" http://localhost:9090/orgs -d '{"name":"Hotel Al Saladia", "uniqueShortName":"HAS", "address":{"streetAddress":"JapaniBosti","city":"Dhaka","state":"Dhaka","country":"Bangladesh","zip":"1207"}}'
curl -u smartadmin@smart-user:02040250204039 -v -X POST -H "Content-type:application/json" http://localhost:9090/orgs -d '{"name":"Potakkk and co.", "uniqueShortName":"Potak", "address":{"streetAddress":"Pahartoli","city":"Chittagong","state":"Chittaong","country":"Bangladesh","zip":"1207"}}'
curl -u smartadmin@smart-user:02040250204039 -v -X POST -H "Content-type:application/json" http://localhost:9090/orgs -d '{"name":"Rupali Store", "uniqueShortName":"RUPS", "address":{"streetAddress":"Pahartoli","city":"Chittagong","state":"Chittaong","country":"Bangladesh","zip":"1207"}}'
curl -u smartadmin@smart-user:02040250204039 -v -X POST -H "Content-type:application/json" http://localhost:9090/orgs -d '{"name":"Kamal Store", "uniqueShortName":"KAMS", "address":{"streetAddress":"GEC","city":"Chittagong","state":"Chittaong","country":"Bangladesh","zip":"1207"}}'
curl -u smartadmin@smart-user:02040250204039 -v -X POST -H "Content-type:application/json" http://localhost:9090/orgs -d '{"name":"Zaman Hotel", "uniqueShortName":"Zaman", "address":{"streetAddress":"GEC","city":"Chittagong","state":"Chittaong","country":"Bangladesh","zip":"1207"}}'
curl -u smartadmin@smart-user:02040250204039 -v -X POST -H "Content-type:application/json" http://localhost:9090/orgs -d '{"name":"Cats Eye", "uniqueShortName":"CA", "address":{"streetAddress":"Nilkhet","city":"Dhaka","state":"Dhaka","country":"Bangladesh","zip":"1207"}}'
curl -u smartadmin@smart-user:02040250204039 -v -X POST -H "Content-type:application/json" http://localhost:9090/orgs -d '{"name":"Gentle Park", "uniqueShortName":"GP", "address":{"streetAddress":"GEC","city":"Chittagong","state":"Chittaong","country":"Bangladesh","zip":"1207"}}'





curl -u smartadmin@smart-user:02040250204039 -v -X POST -H "Content-type:application/json" http://localhost:9090/orgs/SITEL/securedObjects -d '{"name":"journal","objectID":"journal-1","parentOrganizationID":"1"}'
curl -v -X POST -H "Content-type:application/json" http://localhost:9090/orgs/SITEL/privs -d'{"name":"privilegeName","displayName":"displayName","parentOrganizationID":"1"}'
curl -v -X POST -H "Content-type:application/json" http://localhost:9090/orgs/SITEL/roles -d '{"name":"roleName1","displayName":"roleDisplayName1","privilegeIDs":["1"],"parentOrganizationID":"1"}'
curl -v -X POST -H "Content-type:application/json" http://localhost:9090/orgs/SITEL/roles -d '{"name":"roleName2","displayName":"roleDisplayName2","privilegeIDs":["1"],"roleIDs":["1"],"parentOrganizationID":"1"}'
curl -u smartadmin@smart-user:02040250204039 -v -X POST -H "Content-type:application/json" http://localhost:9090/orgs/SITEL/users -d '{"username":"russel","password":"russel39","parentOrganizationID":"2"}'
curl -u smartadmin@smart-user:02040250204039 -v -X POST -H "Content-type:application/json" http://localhost:9090/orgs/SITEL/users -d '{"username":"modhu","password":"modhu25","parentOrganizationID":"2"}'
curl -u smartadmin@smart-user:02040250204039 -v -X POST -H "Content-type:application/json" http://localhost:9090/orgs/SITEL/users -d '{"username":"uzzal","password":"uzzal123","parentOrganizationID":"2"}'

curl -u smartadmin@smart-user:02040250204039 -v -X POST -H "Content-type:application/json" http://localhost:9090/orgs/SITEL/users -d '{"username":"saumitra","password":"saumitra123","parentOrganizationID":"2"}'
curl -u smartadmin@smart-user:02040250204039 -v -X POST -H "Content-type:application/json" http://localhost:9090/orgs/SITEL/users -d '{"username":"russel","password":"russel123","parentOrganizationID":"2"}'
curl -u smartadmin@smart-user:02040250204039 -v -X POST -H "Content-type:application/json" http://localhost:9090/orgs/SITEL/users -d '{"username":"23","password":"saumitra123","parentOrganizationID":"2"}'
curl -u smartadmin@smart-user:02040250204039 -v -X POST -H "Content-type:application/json" http://localhost:9090/orgs/SITEL/users -d '{"username":"saumitra","password":"saumitra123","parentOrganizationID":"2"}'
curl -u smartadmin@smart-user:02040250204039 -v -X POST -H "Content-type:application/json" http://localhost:9090/orgs/SITEL/users -d '{"username":"saumitra","password":"saumitra123","parentOrganizationID":"2"}'
curl -u smartadmin@smart-user:02040250204039 -v -X POST -H "Content-type:application/json" http://localhost:9090/orgs/SITEL/users -d '{"username":"saumitra","password":"saumitra123","parentOrganizationID":"2"}'



